NORAD_CAT_ID,OBJECT_NAME,OBJECT_TYPE,EPOCH,MEAN_MOTION,ECCENTRICITY,INCLINATION,RA_OF_ASC_NODE,ARG_OF_PERICENTER,MEAN_ANOMALY,BSTAR,MEAN_MOTION_DOT,MEAN_MOTION_DDOT,TLE_LINE0,TLE_LINE1,TLE_LINE2,SEMIMAJOR_AXIS,PERIOD,APOGEE,PERIGEE,DECAYED
55399.0,STARLINK-5276,PAYLOAD,2024-02-11 17:43:48,14.98332519,0.0002379,70.0022,172.9129,257.6243,102.465,3.6653e-05,3.44e-06,0.0,0 STARLINK-5276,1 55399U 23014J   24042.73875934  .00000344  00000-0  36653-4 0  9997,2 55399  70.0022 172.9129 0002379 257.6243 102.4650 14.98332519 58674,6950.185,96.107,573.704,570.397,0.0
55399.0,STARLINK-5276,PAYLOAD,2024-02-12 11:21:17,14.98333135,0.0002709,70.0014,171.0613,267.6967,92.3881,-4.5163e-05,-6.32e-06,0.0,0 STARLINK-5276,1 55399U 23014J   24043.47311893 -.00000632  00000-0 -45163-4 0  9996,2 55399  70.0014 171.0613 0002709 267.6967  92.3881 14.98333135 57840,6950.183,96.107,573.931,570.165,0.0
55399.0,STARLINK-5276,PAYLOAD,2024-02-12 14:33:33,14.98331657,0.0002609,70.0018,170.7249,260.6225,99.4639,-2.0732e-05,-3.4e-06,0.0,0 STARLINK-5276,1 55399U 23014J   24043.60663850 -.00000340  00000-0 -20732-4 0  9995,2 55399  70.0018 170.7249 0002609 260.6225  99.4639 14.98331657 58807,6950.188,96.107,573.866,570.239,0.0
55399.0,STARLINK-5276,PAYLOAD,2024-02-12 17:45:49,14.98333486,0.000279,70.0014,170.3881,271.9829,88.101,-1.4169e-05,-2.62e-06,0.0,0 STARLINK-5276,1 55399U 23014J   24043.74015747 -.00000262  00000-0 -14169-4 0  9996,2 55399  70.0014 170.3881 0002790 271.9829  88.1010 14.98333486 58829,6950.182,96.107,573.986,570.108,0.0
55399.0,STARLINK-5276,PAYLOAD,2024-02-13 11:23:19,14.98320015,0.000299,70.002,168.5377,269.0939,90.9877,-8.3247e-05,-1.086e-05,0.0,0 STARLINK-5276,1 55399U 23014J   24044.47452856 -.00001086  00000-0 -83247-4 0  9991,2 55399  70.0020 168.5377 0002990 269.0939  90.9877 14.98320015 57990,6950.224,96.108,574.167,570.011,0.0
55399.0,STARLINK-5276,PAYLOAD,2024-02-13 14:35:34,14.98327798,0.0002888,70.0015,168.2003,269.6217,90.4611,-3.7167e-05,-5.36e-06,0.0,0 STARLINK-5276,1 55399U 23014J   24044.60804346 -.00000536  00000-0 -37167-4 0  9990,2 55399  70.0015 168.2003 0002888 269.6217  90.4611 14.98327798 58951,6950.2,96.107,574.072,570.057,0.0
55399.0,STARLINK-5276,PAYLOAD,2024-02-13 17:47:51,14.98329032,0.0003033,70.0011,167.8631,271.294,88.7872,-4.5698e-05,-6.38e-06,0.0,0 STARLINK-5276,1 55399U 23014J   24044.74156286 -.00000638  00000-0 -45698-4 0  9999,2 55399  70.0011 167.8631 0003033 271.2940  88.7872 14.98329032 58035,6950.196,96.107,574.169,569.953,0.0
55399.0,STARLINK-5276,PAYLOAD,2024-02-14 14:37:35,14.98334756,0.0002763,70.0009,165.6748,264.5248,95.5596,7.7305e-05,8.3e-06,0.0,0 STARLINK-5276,1 55399U 23014J   24045.60943687  .00000830  00000-0  77305-4 0  9996,2 55399  70.0009 165.6748 0002763 264.5248  95.5596 14.98334756 59109,6950.178,96.107,573.964,570.123,0.0
55399.0,STARLINK-5276,PAYLOAD,2024-02-14 16:13:43,14.98334924,0.0002714,70.001,165.5064,263.694,96.391,8.7444e-05,9.51e-06,0.0,0 STARLINK-5276,1 55399U 23014J   24045.67619638  .00000951  00000-0  87444-4 0  9998,2 55399  70.0010 165.5064 0002714 263.6940  96.3910 14.98334924 58178,6950.178,96.107,573.929,570.156,0.0
55399.0,STARLINK-5276,PAYLOAD,2024-02-15 11:27:21,14.98321123,0.000295,70.0012,163.487,268.9768,91.1053,6.3879e-05,6.69e-06,0.0,0 STARLINK-5276,1 55399U 23014J   24046.47732652  .00000669  00000-0  63879-4 0  9991,2 55399  70.0012 163.4870 0002950 268.9768  91.1053 14.98321123 58291,6950.22,96.108,574.136,570.035,0.0
55399.0,STARLINK-5276,PAYLOAD,2024-02-15 14:39:37,14.9832388,0.0002881,70.001,163.1505,268.5991,91.4839,3.7769e-05,3.58e-06,0.0,0 STARLINK-5276,1 55399U 23014J   24046.61084619  .00000358  00000-0  37769-4 0  9994,2 55399  70.0010 163.1505 0002881 268.5991  91.4839 14.98323880 59252,6950.212,96.107,574.079,570.074,0.0
55399.0,STARLINK-5276,PAYLOAD,2024-02-15 16:15:45,14.98326711,0.0002869,70.0011,162.9822,268.5683,91.5148,3.5685e-05,3.33e-06,0.0,0 STARLINK-5276,1 55399U 23014J   24046.67760453  .00000333  00000-0  35685-4 0  9995,2 55399  70.0011 162.9822 0002869 268.5683  91.5148 14.98326711 59267,6950.203,96.107,574.062,570.074,0.0
55399.0,STARLINK-5276,PAYLOAD,2024-02-16 11:29:21,14.98335188,0.0002842,70.0016,160.9626,268.4762,91.6071,2.5135e-05,2.07e-06,0.0,0 STARLINK-5276,1 55399U 23014J   24047.47871864  .00000207  00000-0  25135-4 0  9992,2 55399  70.0016 160.9626 0002842 268.4762  91.6071 14.98335188 58443,6950.177,96.107,574.017,570.067,0.0
55399.0,STARLINK-5276,PAYLOAD,2024-02-16 14:41:37,14.98338122,0.0002969,70.0014,160.626,269.2798,90.8021,4.6843e-05,4.66e-06,0.0,0 STARLINK-5276,1 55399U 23014J   24047.61223552  .00000466  00000-0  46843-4 0  9999,2 55399  70.0014 160.6260 0002969 269.2798  90.8021 14.98338122 59404,6950.168,96.106,574.096,569.969,0.0
55399.0,STARLINK-5276,PAYLOAD,2024-02-16 17:53:52,14.98340444,0.0002748,70.0013,160.2892,269.35,90.7344,0.00012317,1.377e-05,0.0,0 STARLINK-5276,1 55399U 23014J   24047.74575136  .00001377  00000-0  12317-3 0  9991,2 55399  70.0013 160.2892 0002748 269.3500  90.7344 14.98340444 58481,6950.161,96.106,573.935,570.116,0.0
55399.0,STARLINK-5276,PAYLOAD,2024-02-17 00:18:25,14.98333233,0.0002683,70.0016,159.616,268.4257,91.6595,9.7293e-06,2.3e-07,0.0,0 STARLINK-5276,1 55399U 23014J   24048.01279776  .00000023  00000-0  97293-5 0  9998,2 55399  70.0016 159.6160 0002683 268.4257  91.6595 14.98333233 58522,6950.183,96.107,573.913,570.183,0.0
55399.0,STARLINK-5276,PAYLOAD,2024-02-17 11:31:22,14.98327745,0.0002587,70.002,158.4386,266.376,93.7103,-6.9005e-05,-9.16e-06,0.0,0 STARLINK-5276,1 55399U 23014J   24048.48012327 -.00000916  00000-0 -69005-4 0  9998,2 55399  70.0020 158.4386 0002587 266.3760  93.7103 14.98327745 58599,6950.2,96.107,573.863,570.267,0.0
55399.0,STARLINK-5276,PAYLOAD,2024-02-17 14:43:38,14.9832333,0.0002745,70.0019,158.1023,262.2752,97.8096,-4.4356e-05,-6.22e-06,0.0,0 STARLINK-5276,1 55399U 23014J   24048.61364548 -.00000622  00000-0 -44356-4 0  9994,2 55399  70.0019 158.1023 0002745 262.2752  97.8096 14.98323330 59553,6950.214,96.107,573.986,570.171,0.0
55399.0,STARLINK-5276,PAYLOAD,2024-02-17 16:19:46,14.98324515,0.0002736,70.0019,157.9341,261.8525,98.2324,-3.1645e-05,-4.7e-06,0.0,0 STARLINK-5276,1 55399U 23014J   24048.68040444 -.00000470  00000-0 -31645-4 0  9995,2 55399  70.0019 157.9341 0002736 261.8525  98.2324 14.98324515 59562,6950.21,96.107,573.976,570.173,0.0
55399.0,STARLINK-5276,PAYLOAD,2024-02-18 00:20:30,14.98285442,0.0002854,70.0015,157.0924,263.7139,96.3695,-0.00047688,-5.772e-05,0.0,0 STARLINK-5276,1 55399U 23014J   24049.01424608 -.00005772  00000-0 -47688-3 0  9994,2 55399  70.0015 157.0924 0002854 263.7139  96.3695 14.98285442 58675,6950.331,96.11,574.179,570.212,0.0
55399.0,STARLINK-5276,PAYLOAD,2024-02-18 11:33:25,14.98321754,0.0002516,70.0021,155.9138,265.3117,94.7755,-0.00010351,-1.327e-05,0.0,0 STARLINK-5276,1 55399U 23014J   24049.48154018 -.00001327  00000-0 -10351-3 0  9999,2 55399  70.0021 155.9138 0002516 265.3117  94.7755 14.98321754 58749,6950.218,96.108,573.832,570.335,0.0
55399.0,STARLINK-5276,PAYLOAD,2024-02-18 14:45:39,14.98336742,0.0002835,70.0012,155.5763,265.0525,95.0311,3.8494e-05,3.66e-06,0.0,0 STARLINK-5276,1 55399U 23014J   24049.61504561  .00000366  00000-0  38494-4 0  9995,2 55399  70.0012 155.5763 0002835 265.0525  95.0311 14.98336742 59705,6950.172,96.107,574.007,570.067,0.0
55399.0,STARLINK-5276,PAYLOAD,2024-02-18 17:57:55,14.98339378,0.0002824,70.0012,155.2391,265.0509,95.0327,6.7133e-05,7.08e-06,0.0,0 STARLINK-5276,1 55399U 23014J   24049.74856293  .00000708  00000-0  67133-4 0  9993,2 55399  70.0012 155.2391 0002824 265.0509  95.0327 14.98339378 58781,6950.164,96.106,573.992,570.066,0.0
55399.0,STARLINK-5276,PAYLOAD,2024-02-19 14:47:39,14.98339604,0.0002783,70.0008,153.0509,260.2093,99.8751,0.00022851,2.635e-05,0.0,0 STARLINK-5276,1 55399U 23014J   24050.61643476  .00002635  00000-0  22851-3 0  9996,2 55399  70.0008 153.0509 0002783 260.2093  99.8751 14.98339604 59856,6950.163,96.106,573.962,570.094,0.0
55399.0,STARLINK-5276,PAYLOAD,2024-02-19 16:23:47,14.98341014,0.0002859,70.0009,152.8828,262.5179,97.5655,0.00024303,2.809e-05,0.0,0 STARLINK-5276,1 55399U 23014J   24050.68319318  .00002809  00000-0  24303-3 0  9995,2 55399  70.0009 152.8828 0002859 262.5179  97.5655 14.98341014 59869,6950.159,96.106,574.011,570.037,0.0
55399.0,STARLINK-5276,PAYLOAD,2024-02-20 11:37:26,14.9832645,0.0002518,70.0026,150.8658,257.2562,102.8316,5.9952e-05,6.22e-06,0.0,0 STARLINK-5276,1 55399U 23014J   24051.48433001  .00000622  00000-0  59952-4 0  9990,2 55399  70.0026 150.8658 0002518 257.2562 102.8316 14.98326450 59047,6950.204,96.107,573.819,570.319,0.0
55399.0,STARLINK-5276,PAYLOAD,2024-02-20 14:49:42,14.98331723,0.0002688,70.0019,150.5286,258.2054,101.8804,-5.6802e-05,-7.71e-06,0.0,0 STARLINK-5276,1 55399U 23014J   24051.61784970 -.00000771  00000-0 -56802-4 0  9997,2 55399  70.0019 150.5286 0002688 258.2054 101.8804 14.98331723 60006,6950.188,96.107,573.921,570.184,0.0
55399.0,STARLINK-5276,PAYLOAD,2024-02-20 16:25:50,14.98331259,0.0002768,70.0013,150.3597,259.7908,100.2939,-4.003e-06,-1.41e-06,0.0,0 STARLINK-5276,1 55399U 23014J   24051.68460835 -.00000141  00000-0 -40030-5 0  9993,2 55399  70.0013 150.3597 0002768 259.7908 100.2939 14.98331259 60013,6950.189,96.107,573.978,570.13,0.0
55399.0,STARLINK-5276,PAYLOAD,2024-02-21 11:39:25,14.98342748,0.000303,70.0007,148.3399,265.5668,94.5145,-6.0495e-05,-8.15e-06,0.0,0 STARLINK-5276,1 55399U 23014J   24052.48571633 -.00000815  00000-0 -60495-4 0  9995,2 55399  70.0007 148.3399 0003030 265.5668  94.5145 14.98342748 59190,6950.153,96.106,574.124,569.913,0.0
55399.0,STARLINK-5276,PAYLOAD,2024-02-21 13:15:33,14.98344388,0.0002944,70.0007,148.1718,264.0458,96.0366,-4.7915e-05,-6.65e-06,0.0,0 STARLINK-5276,1 55399U 23014J   24052.55247432 -.00000665  00000-0 -47915-4 0  9995,2 55399  70.0007 148.1718 0002944 264.0458  96.0366 14.98344388 60148,6950.148,96.106,574.06,569.967,0.0
